ONEWEB-0207             
1 48242U 21031AJ  24283.08085779 -.00000119  00000+0 -35665-3 0  9990
2 48242  87.8991  52.2003 0001500  95.9790 264.1511 13.14504538167357
ONEWEB-0208             
1 48243U 21031AK  24282.83427168  .00000116  00000+0  27745-3 0  9990
2 48243  87.8989  52.2637 0001771  92.0868 268.0465 13.14502508167336
ONEWEB-0200             
1 48244U 21031AL  24282.87390010  .00000185  00000+0  46578-3 0  9991
2 48244  87.8986  52.2515 0001831  93.2552 266.8787 13.14506146167277
ONEWEB-0217             
1 48245U 21031AM  24283.11811792  .00002363  00000+0  63382-2 0  9996
2 48245  87.8985  52.1874 0001753 101.4597 258.6730 13.14495940167252
ONEWEB-0211             
1 48767U 21045A   24283.18277776  .00000100  00000+0  23138-3 0  9998
2 48767  87.9116  21.7722 0002045 103.9720 256.1638 13.15551573164558
ONEWEB-0223             
1 48768U 21045B   24283.35706651  .00000104  00000+0  24091-3 0  9990
2 48768  87.9123  21.7483 0002401 105.8346 254.3049 13.15552743164570
ONEWEB-0230             
1 48769U 21045C   24283.02431335 -.00000175  00000+0 -49972-3 0  9994
2 48769  87.9122  21.8845 0001852 108.1097 252.0235 13.15547192164766
ONEWEB-0237             
1 48770U 21045D   24283.01322328 -.00000174  00000+0 -49588-3 0  9998
2 48770  87.9130  21.8239 0002141 105.4716 254.6651 13.15551150164505
